GLOBALSTAR M069         
1 31573U 07020C   26173.60536263 -.00000092  00000+0  62736-5 0  9998
2 31573  52.0014 236.7917 0002218 159.8938 359.4876 12.23471274879463
GLOBALSTAR M072         
1 31574U 07020D   26173.52893057 -.00000085  00000+0 -10052-4 0  9993
2 31574  51.9932  86.0238 0001476 345.8815 184.9410 11.91658316875615
GLOBALSTAR M066         
1 32265U 07048C   26173.38110003 -.00000143  00000+0 -41120-3 0  9992
2 32265  51.9606  43.0024 0005577  55.1045 115.4989 12.30387034860860
GLOBALSTAR M079         
1 37188U 10054A   26173.54507242 -.00000095  00000+0  49215-4 0  9994
2 37188  52.0042  92.3593 0000832  35.8546 135.7974 12.62266160723221
GLOBALSTAR M074         
1 37189U 10054B   26173.49202353 -.00000100  00000+0  21601-4 0  9990
2 37189  52.0019  91.7847 0000661  58.9426 111.8096 12.62268386723822
GLOBALSTAR M076         
1 37190U 10054C   26173.51840431 -.00000097  00000+0  35741-4 0  9995
2 37190  52.0026  91.9080 0000852  52.9336 117.7033 12.62261898723545
GLOBALSTAR M077         
1 37191U 10054D   26173.71331544 -.00000063  00000+0  27163-3 0  9999
2 37191  51.9918 165.2689 0002644 182.6019 348.2613 11.67547852721784
GLOBALSTAR M075         
1 37192U 10054E   26173.61088038 -.00000092  00000+0  67804-4 0  9995
2 37192  51.9931 133.6778 0000296  28.7569 142.3324 12.62267368722622
GLOBALSTAR M073         
1 37193U 10054F   26173.57504181 -.00000095  00000+0  51475-4 0  9993
2 37193  52.0073  47.8922 0001012  58.7233 307.8872 12.62266583724612
GLOBALSTAR M083         
1 37739U 11033A   26173.42903098 -.00000080  00000+0  13227-3 0  9997
2 37739  51.9875 356.5576 0000958  74.8003 289.4170 12.62263387693613
GLOBALSTAR M088         
1 37740U 11033B   26173.56329469 -.00000094  00000+0  55119-4 0  9990
2 37740  52.0210 262.5916 0000596 134.9573 238.0838 12.62268921689178
GLOBALSTAR M091         
1 37741U 11033C   26173.41791328 -.00000105  00000+0 -88609-5 0  9997
2 37741  51.9980 225.9917 0000178 166.5923 206.4016 12.62264045689946
GLOBALSTAR M085         
1 37742U 11033D   26173.32559995 -.00000101  00000+0  14797-4 0  9991
2 37742  52.0094 177.5675 0000219 335.0972  38.2824 12.62264112690441
GLOBALSTAR M081         
1 37743U 11033E   26173.27275897 -.00000095  00000+0  51674-4 0  9999
2 37743  51.9926 180.1590 0000148  43.3456 329.4764 12.62265138690589
GLOBALSTAR M089         
1 37744U 11033F   26173.66368613 -.00000088  00000+0  89492-4 0  9993
2 37744  51.9914 133.1254 0000410  78.2623  92.7762 12.62267316691474
GLOBALSTAR M084         
1 38040U 11080A   26173.56783345 -.00000104  00000+0  76242-6 0  9997
2 38040  52.0026   0.9016 0001106  94.3358 300.8503 12.62267548669449
GLOBALSTAR M080         
1 38041U 11080B   26173.53919410 -.00000092  00000+0  68072-4 0  9995
2 38041  52.0080   2.7087 0000412  74.7984 320.2575 12.62269565669563
GLOBALSTAR M082         
1 38042U 11080C   26173.70834009 -.00000093  00000+0  61875-4 0  9990
2 38042  52.0092 317.6955 0000510 103.6434 270.3350 12.62263693670294
GLOBALSTAR M092         
1 38043U 11080D   26173.39987100 -.00000107  00000+0 -20680-4 0  9993
2 38043  52.0094  49.0316 0000777  70.7536  99.8927 12.62267013668703
GLOBALSTAR M090         
1 38044U 11080E   26173.42245197 -.00000098  00000+0  30641-4 0  9997
2 38044  52.0139 312.5231 0000759  98.1756 295.1686 12.62269071670371
GLOBALSTAR M086         
1 38045U 11080F   26173.78998127 -.00000083  00000+0  11606-3 0  9998
2 38045  51.9915 311.3254 0001701  77.0939  88.5489 12.62286934670362
GLOBALSTAR M097         
1 39072U 13005A   26173.54748256 -.00000102  00000+0  11150-4 0  9995
2 39072  52.0026 227.0207 0000189 119.6575 240.4311 12.62247336617588
GLOBALSTAR M093         
1 39073U 13005B   26173.52061993 -.00000104  00000+0 -39909-5 0  9996
2 39073  52.0081 220.4501 0000173  60.1252 299.9632 12.62265997617532
GLOBALSTAR M094         
1 39074U 13005C   26173.59968541 -.00000099  00000+0  29164-4 0  9992
2 39074  51.9937 134.3186 0000553  17.9669 342.1217 12.62268511619152
GLOBALSTAR M096         
1 39075U 13005D   26173.45480994 -.00000102  00000+0  12570-4 0  9997
2 39075  52.0041 183.5664 0000159 345.9569  14.1293 12.62265641618052
GLOBALSTAR M078         
1 39076U 13005E   26173.50703873 -.00000072  00000+0  17549-3 0  9994
2 39076  51.9876 267.4108 0000486 251.1786 108.9028 12.62258373616683
GLOBALSTAR M095         
1 39077U 13005F   26173.53376970 -.00000100  00000+0  18427-4 0  9991
2 39077  52.0084 264.9411 0000132 127.9650 232.1229 12.62263519616540
GLOBALSTAR M087         
1 52888U 22064A   26173.70535159 -.00000105  00000+0 -94647-5 0  9991
2 52888  52.0009  45.6529 0000840  50.3198 309.7743 12.62269165191833
